{
  "norad_id": 58199,
  "name": "TIANHUI 5A",
  "history": [
    {
      "epoch": "2026-03-27T11:37:52.335264Z",
      "apogee_km": 606.5932510877483,
      "perigee_km": 604.4087691181876,
      "latitude_deg": 5.750548968179605e-05,
      "longitude_deg": 95.63496204892013,
      "height_km": 608.5144038114246,
      "semi_major_axis_km": 6983.638010102967,
      "eccentricity": 0.0001564,
      "inclination_deg": 97.8212,
      "raan_deg": 95.0218,
      "arg_perigee_deg": 89.0421,
      "mean_anomaly_deg": 271.0975,
      "mean_motion_rev_day": 14.8757949
    },
    {
      "epoch": "2026-03-30T13:53:28.434048Z",
      "apogee_km": 606.5657323967062,
      "perigee_km": 604.4079323049873,
      "latitude_deg": 7.775912177727002e-05,
      "longitude_deg": 61.73469682243793,
      "height_km": 608.4951975657624,
      "semi_major_axis_km": 6983.623832350847,
      "eccentricity": 0.00015449,
      "inclination_deg": 97.821,
      "raan_deg": 98.0717,
      "arg_perigee_deg": 88.761,
      "mean_anomaly_deg": 271.3784,
      "mean_motion_rev_day": 14.8758402
    },
    {
      "epoch": "2026-03-31T10:52:39.815904Z",
      "apogee_km": 606.5658855562633,
      "perigee_km": 604.3995667172167,
      "latitude_deg": 5.6607915745901586e-06,
      "longitude_deg": 106.93749867257067,
      "height_km": 608.4982985961542,
      "semi_major_axis_km": 6983.61972613674,
      "eccentricity": 0.0001551,
      "inclination_deg": 97.821,
      "raan_deg": 98.9338,
      "arg_perigee_deg": 89.147,
      "mean_anomaly_deg": 270.9924,
      "mean_motion_rev_day": 14.87585332
    },
    {
      "epoch": "2026-04-01T12:42:26.049888Z",
      "apogee_km": 606.5647471263546,
      "perigee_km": 604.3942391202918,
      "latitude_deg": -2.800365044999549e-05,
      "longitude_deg": 79.49498283236886,
      "height_km": 608.4927342465992,
      "semi_major_axis_km": 6983.616493123323,
      "eccentricity": 0.0001554,
      "inclination_deg": 97.821,
      "raan_deg": 99.9947,
      "arg_perigee_deg": 89.0255,
      "mean_anomaly_deg": 271.1139,
      "mean_motion_rev_day": 14.87586365
    }
  ]
}